{
    "links": {
        "self": "http://www.neowsapp.com/rest/v1/neo/54076928?api_key=iIulBulltgU6a56xZRHN4H3l9WmuAYTsLGpBGhQ2"
    },
    "id": "54076928",
    "neo_reference_id": "54076928",
    "name": "(2020 UL5)",
    "designation": "2020 UL5",
    "nasa_jpl_url": "http://ssd.jpl.nasa.gov/sbdb.cgi?sstr=54076928",
    "absolute_magnitude_h": 25.143,
    "estimated_diameter": {
        "kilometers": {
            "estimated_diameter_min": 0.0248859931,
            "estimated_diameter_max": 0.0556467723
        },
        "meters": {
            "estimated_diameter_min": 24.8859931133,
            "estimated_diameter_max": 55.646772289
        },
        "miles": {
            "estimated_diameter_min": 0.0154634344,
            "estimated_diameter_max": 0.0345772905
        },
        "feet": {
            "estimated_diameter_min": 81.646961646,
            "estimated_diameter_max": 182.5681563968
        }
    },
    "is_potentially_hazardous_asteroid": false,
    "close_approach_data": [
        {
            "close_approach_date": "2012-10-03",
            "close_approach_date_full": "2012-Oct-03 06:29",
            "epoch_date_close_approach": 1349245740000,
            "relative_velocity": {
                "kilometers_per_second": "7.3963575727",
                "kilometers_per_hour": "26626.8872617876",
                "miles_per_hour": "16544.9122544146"
            },
            "miss_distance": {
                "astronomical": "0.1186839503",
                "lunar": "46.1680566667",
                "kilometers": "17754866.168065861",
                "miles": "11032362.2594004418"
            },
            "orbiting_body": "Earth"
        },
        {
            "close_approach_date": "2020-10-06",
            "close_approach_date_full": "2020-Oct-06 23:32",
            "epoch_date_close_approach": 1602027120000,
            "relative_velocity": {
                "kilometers_per_second": "6.8565631399",
                "kilometers_per_hour": "24683.6273035146",
                "miles_per_hour": "15337.4460875644"
            },
            "miss_distance": {
                "astronomical": "0.1002692491",
                "lunar": "39.0047378999",
                "kilometers": "15000066.091859417",
                "miles": "9320608.8671052746"
            },
            "orbiting_body": "Earth"
        },
        {
            "close_approach_date": "2028-10-09",
            "close_approach_date_full": "2028-Oct-09 04:02",
            "epoch_date_close_approach": 1854676920000,
            "relative_velocity": {
                "kilometers_per_second": "6.716375841",
                "kilometers_per_hour": "24178.9530276293",
                "miles_per_hour": "15023.8611187511"
            },
            "miss_distance": {
                "astronomical": "0.0970028872",
                "lunar": "37.7341231208",
                "kilometers": "14511425.308970264",
                "miles": "9016981.5640030832"
            },
            "orbiting_body": "Earth"
        }
    ],
    "orbital_data": {
        "orbit_id": "2",
        "orbit_determination_date": "2020-11-17 05:29:58",
        "first_observation_date": "2020-10-16",
        "last_observation_date": "2020-11-16",
        "data_arc_in_days": 31,
        "observations_used": 21,
        "orbit_uncertainty": "7",
        "minimum_orbit_intersection": ".0988849",
        "jupiter_tisserand_invariant": "3.786",
        "epoch_osculation": "2459000.5",
        "eccentricity": ".432198140024616",
        "semi_major_axis": "1.924337889403014",
        "inclination": "9.356796258628245",
        "ascending_node_longitude": "189.946086262834",
        "orbital_period": "975.0354892503568",
        "perihelion_distance": "1.092642632824136",
        "perihelion_argument": "193.5767825595449",
        "aphelion_distance": "2.756033145981892",
        "perihelion_time": "2459137.618063450960",
        "mean_anomaly": "309.3736347173401",
        "mean_motion": ".3692173300038353",
        "equinox": "J2000",
        "orbit_class": {
            "orbit_class_type": "AMO",
            "orbit_class_description": "Near-Earth asteroid orbits similar to that of 1221 Amor",
            "orbit_class_range": "1.017 AU < q (perihelion) < 1.3 AU"
        }
    },
    "is_sentry_object": false
}